COMMENT,ORIGINATOR,NORAD_CAT_ID,OBJECT_NAME,OBJECT_TYPE,CLASSIFICATION_TYPE,INTLDES,EPOCH,EPOCH_MICROSECONDS,MEAN_MOTION,ECCENTRICITY,INCLINATION,RA_OF_ASC_NODE,ARG_OF_PERICENTER,MEAN_ANOMALY,EPHEMERIS_TYPE,ELEMENT_SET_NO,REV_AT_EPOCH,BSTAR,MEAN_MOTION_DOT,MEAN_MOTION_DDOT,FILE,TLE_LINE0,TLE_LINE1,TLE_LINE2,OBJECT_ID,OBJECT_NUMBER,SEMIMAJOR_AXIS,PERIOD,APOGEE,PERIGEE
"GENERATED VIA SPACETRACK.ORG API","JSPOC","15470","COSMOS 1618","PAYLOAD","U","85003B","2016-01-09 22:43:05","556576","12.62982029","0.0003883","82.6028","359.7501","233.1118","155.0166","0","999","42826","-2.4317e-05","6e-08","0","1978726","0 COSMOS 1618","1 15470U 85003B   16009.94659209 +.00000006 +00000-0 -24317-4 0  9991","2 15470 082.6028 359.7501 0003883 233.1118 155.0166 12.62982029428263","1985-003B","15470","7788.797","114.015","1413.686","1407.637"
"GENERATED VIA SPACETRACK.ORG API","JSPOC","7273","SL-8 R/B","ROCKET BODY","U","74024J","2016-01-09 22:43:13","760256","12.30429921","0.0075002","74.0251","344.4709","127.3046","262.9767","0","999","87391","0.00027141","1.8e-07","0","1978726","0 SL-8 R/B","1  7273U 74024J   16009.94668704 +.00000018 +00000-0 +27141-3 0  9993","2  7273 074.0251 344.4709 0075002 127.3046 262.9767 12.30429921873918","1974-024J","7273","7925.571","117.032","1606.879","1487.993"
"GENERATED VIA SPACETRACK.ORG API","JSPOC","16452","COSMOS 1719","PAYLOAD","U","86002D","2016-01-09 22:43:14","854944","12.48827358","0.0019588","73.9899","354.8139","307.3569","81.3925","0","999","36770","-7.3475e-05","-2.7e-07","0","1978726","0 COSMOS 1719","1 16452U 86002D   16009.94669971 -.00000027 +00000-0 -73475-4 0  9992","2 16452 073.9899 354.8139 0019588 307.3569 081.3925 12.48827358367701","1986-002D","16452","7847.540","115.308","1484.777","1454.033"
"GENERATED VIA SPACETRACK.ORG API","JSPOC","27597","ADEOS 2","PAYLOAD","U","02056A","2016-01-09 22:43:18","213312","14.27168611","0.000214","98.3051","357.8468","80.4466","305.3009","0","999","68064","5.6951e-05","9.8e-07","0","1978726","0 ADEOS 2","1 27597U 02056A   16009.94673858 +.00000098 +00000-0 +56951-4 0  9996","2 27597 098.3051 357.8468 0002140 080.4466 305.3009 14.27168611680645","2002-056A","27597","7179.347","100.899","802.749","799.676"
"GENERATED VIA SPACETRACK.ORG API","JSPOC","28898","MOZ.5/SAFIR/RUBIN 5/SL-8","PAYLOAD","U","05043G","2016-01-09 22:43:19","624224","14.60034045","0.0020674","97.8594","178.6942","39.7315","320.5396","0","999","16670","3.8202e-05","1.4e-06","0","1978726","0 MOZ.5/SAFIR/RUBIN 5/SL-8","1 28898U 05043G   16009.94675491 +.00000140 +00000-0 +38202-4 0  9992","2 28898 097.8594 178.6942 0020674 039.7315 320.5396 14.60034045166708","2005-043G","28898","7071.201","98.627","707.685","678.447"
"GENERATED VIA SPACETRACK.ORG API","JSPOC","8891","COSMOS 827","PAYLOAD","U","76054C","2016-01-09 22:43:20","368128","12.53254847","0.004944","73.9978","198.7445","271.2781","199.5822","0","999","22812","2.6482e-05","-1.2e-07","0","1978726","0 COSMOS 827","1  8891U 76054C   16009.94676352 -.00000012 +00000-0 +26482-4 0  9996","2  8891 073.9978 198.7445 0049440 271.2781 199.5822 12.53254847228120","1976-054C","8891","7829.047","114.900","1489.619","1412.205"
"GENERATED VIA SPACETRACK.ORG API","JSPOC","23752","SKIPPER","PAYLOAD","U","95072B","2016-01-09 22:43:24","811680","14.25769703","0.0005412","98.8375","327.4773","358.3154","47.644","0","999","4244","1.0824e-05","-2e-07","0","1978360","0 SKIPPER","1 23752U 95072B   16009.94681495 -.00000020  00000-0  10824-4 0  9996","2 23752  98.8375 327.4773 0005412 358.3154  47.6440 14.25769703 42448","1995-072B","23752","7184.042","100.998","809.795","802.019"
"GENERATED VIA SPACETRACK.ORG API","JSPOC","10590","COSMOS 983","PAYLOAD","U","78005H","2016-01-09 22:43:38","329824","12.41461711","0.0047458","74.0314","285.2963","261.312","171.6865","0","999","72199","-3.1879e-05","-2e-07","0","1978726","0 COSMOS 983","1 10590U 78005H   16009.94697141 -.00000020 +00000-0 -31879-4 0  9998","2 10590 074.0314 285.2963 0047458 261.3120 171.6865 12.41461711721994","1978-005H","10590","7878.549","115.992","1537.804","1463.024"
"GENERATED VIA SPACETRACK.ORG API","JSPOC","21982","COSMOS 2193","PAYLOAD","U","92030G","2016-01-09 22:43:38","918208","12.50402941","0.0021116","74.0053","310.5371","137.2809","285.6261","0","999","7734","-4.1271e-05","-2.2e-07","0","1978726","0 COSMOS 2193","1 21982U 92030G   16009.94697822 -.00000022 +00000-0 -41271-4 0  9994","2 21982 074.0053 310.5371 0021116 137.2809 285.6261 12.50402941077343","1992-030G","21982","7840.946","115.162","1479.368","1446.255"
"GENERATED VIA SPACETRACK.ORG API","JSPOC","16594","SL-14 R/B","ROCKET BODY","U","86015B","2016-01-09 22:43:42","388896","12.4148293","0.0026111","73.6097","358.9712","115.8092","272.597","0","999","35557","-1.1436e-05","-1.9e-07","0","1978726","0 SL-14 R/B","1 16594U 86015B   16009.94701839 -.00000019 +00000-0 -11436-4 0  9993","2 16594 073.6097 358.9712 0026111 115.8092 272.5970 12.41482930355572","1986-015B","16594","7878.460","115.990","1520.896","1479.753"
"GENERATED VIA SPACETRACK.ORG API","JSPOC","6679","COSMOS 568","PAYLOAD","U","73037E","2016-01-09 22:43:44","377824","12.58893315","0.0066646","74.019","356.3967","121.4043","301.6287","0","999","95712","-4.1401e-05","-2.3e-07","0","1978726","0 COSMOS 568","1  6679U 73037E   16009.94704141 -.00000023 +00000-0 -41401-4 0  9995","2  6679 074.0190 356.3967 0066646 121.4043 301.6287 12.58893315957129","1973-037E","6679","7805.652","114.386","1479.539","1375.496"
"GENERATED VIA SPACETRACK.ORG API","JSPOC","11608","SL-3 R/B","ROCKET BODY","U","79095B","2016-01-09 22:43:47","603136","14.06087684","0.0054301","81.2137","359.7174","193.9919","165.9748","0","999","85615","1.2517e-05","3.3e-07","0","1978726","0 SL-3 R/B","1 11608U 79095B   16009.94707874 +.00000033 +00000-0 +12517-4 0  9994","2 11608 081.2137 359.7174 0054301 193.9919 165.9748 14.06087684856159","1979-095B","11608","7250.927","102.411","912.165","833.419"
"GENERATED VIA SPACETRACK.ORG API","JSPOC","5213","COSMOS 414","PAYLOAD","U","71041D","2016-01-09 22:43:49","901376","12.51093045","0.0041852","74.0173","304.5528","54.3399","9.7368","0","999","4048","-2.3915e-05","-1.9e-07","0","1978726","0 COSMOS 414","1  5213U 71041D   16009.94710534 -.00000019 +00000-0 -23915-4 0  9999","2  5213 074.0173 304.5528 0041852 054.3399 009.7368 12.51093045040484","1971-041D","5213","7838.063","115.099","1492.732","1427.124"
"GENERATED VIA SPACETRACK.ORG API","JSPOC","4068","ATS 5","PAYLOAD","U","69069A","2016-01-09 22:43:52","53600","0.99489848","0.0006758","8.7775","310.3272","258.9432","281.9501","0","999","9699","0","1.14e-06","0","1978370","0 ATS 5","1 04068U 69069A   16009.94713025  .00000114  00000-0  00000+0 0  9990","2 04068   8.7775 310.3272 0006758 258.9432 281.9501  0.99489848 96999","1969-069A","4068","42385.371","1447.383","36035.880","35978.592"
"GENERATED VIA SPACETRACK.ORG API","JSPOC","4068","ATS 5","PAYLOAD","U","69069A","2016-01-09 22:43:52","53600","0.99489848","0.0006758","8.7775","310.3272","258.9432","281.9501","0","999","840","0","1.14e-06","0","1978726","0 ATS 5","1  4068U 69069A   16009.94713025 +.00000114 +00000-0 +00000-0 0  9991","2  4068 008.7775 310.3272 0006758 258.9432 281.9501 00.99489848008408","1969-069A","4068","42385.371","1447.383","36035.880","35978.592"
"GENERATED VIA SPACETRACK.ORG API","JSPOC","20045","COSMOS 2026","PAYLOAD","U","89042A","2016-01-09 22:43:52","858848","13.7598299","0.0040105","82.9402","357.5188","170.6895","218.7038","0","999","33513","1.2564e-05","2.8e-07","0","1978726","0 COSMOS 2026","1 20045U 89042A   16009.94713957 +.00000028 +00000-0 +12564-4 0  9997","2 20045 082.9402 357.5188 0040105 170.6895 218.7038 13.75982990335138","1989-042A","20045","7356.306","104.652","1007.673","948.668"
"GENERATED VIA SPACETRACK.ORG API","JSPOC","27559","ALSAT 1","PAYLOAD","U","02054A","2016-01-09 22:43:54","465888","14.7188236","0.0021174","97.7813","180.2208","236.1334","284.7395","0","999","70200","5.5198e-05","2.99e-06","0","1978726","0 ALSAT 1","1 27559U 02054A   16009.94715817 +.00000299 +00000-0 +55198-4 0  9999","2 27559 097.7813 180.2208 0021174 236.1334 284.7395 14.71882360702000","2002-054A","27559","7033.202","97.833","669.959","640.175"
"GENERATED VIA SPACETRACK.ORG API","JSPOC","15751","COSMOS 1655","PAYLOAD","U","85041A","2016-01-09 22:43:55","63776","13.71675113","0.0025562","82.9491","351.8507","229.9264","158.1853","0","999","53218","4.5812e-07","1.5e-07","0","1978726","0 COSMOS 1655","1 15751U 85041A   16009.94716509 +.00000015 +00000-0 +45812-6 0  9996","2 15751 082.9491 351.8507 0025562 229.9264 158.1853 13.71675113532182","1985-041A","15751","7371.700","104.981","1012.408","974.721"
"GENERATED VIA SPACETRACK.ORG API","JSPOC","15930","COSMOS 1670","PAYLOAD","U","85064A","2016-01-09 22:43:58","852416","13.83708325","0.0068154","64.9412","308.1454","197.114","234.3674","0","999","52645","4.2142e-06","-8.4e-07","0","1978726","0 COSMOS 1670","1 15930U 85064A   16009.94720894 -.00000084 +00000-0 +42142-5 0  9991","2 15930 064.9412 308.1454 0068154 197.1140 234.3674 13.83708325526459","1985-064A","15930","7328.900","104.068","1000.714","900.815"
"GENERATED VIA SPACETRACK.ORG API","JSPOC","17067","SL-8 R/B","ROCKET BODY","U","86086B","2016-01-09 22:44:00","188160","13.77637078","0.0034317","82.9437","181.2443","5.8829","158.9384","0","999","46555","-5.4824e-05","-4e-07","0","1978726","0 SL-8 R/B","1 17067U 86086B   16009.94722440 -.00000040 +00000-0 -54824-4 0  9990","2 17067 082.9437 181.2443 0034317 005.8829 158.9384 13.77637078465551","1986-086B","17067","7350.416","104.526","997.506","947.057"
